{"type": "FeatureCollection", "features": [ {"type": "Feature", "properties": {"norad_id": 17070, "name": "POLAR BEAR", "group": "nnss", "lat": -66.89151894228677, "lon": 4.482861097649177, "alt_km": 1011.7161326731148, "timestamp": "2025-12-17T10:52:54.621928+00:00", "meta": {"OBJECT_NAME": "POLAR BEAR", "OBJECT_ID": "1986-088A", "EPOCH": "2025-12-17T00:00:15.991776", "MEAN_MOTION": 13.7525166, "ECCENTRICITY": 0.00411808, "INCLINATION": 89.6171, "RA_OF_ASC_NODE": 183.6032, "ARG_OF_PERICENTER": 106.9515, "MEAN_ANOMALY": 57.0909, "EPHEMERIS_TYPE": 0, "CLASSIFICATION_TYPE": "U", "NORAD_CAT_ID": 17070, "ELEMENT_SET_NO": 999, "REV_AT_EPOCH": 96037, "BSTAR": 0.00011488166, "MEAN_MOTION_DOT": 1.22e-06, "MEAN_MOTION_DDOT": 0}, "tle": {"line1": "1 17070U 86088A   25351.00018509  .00000122  00000+0  11488-3 0  9993", "line2": "2 17070  89.6171 183.6032 0041180 106.9515  57.0909 13.75251660960374"}}, "geometry": {"type": "Point", "coordinates": [4.482861097649177, -66.89151894228677]}}, {"type": "Feature", "properties": {"norad_id": 18361, "name": "OSCAR 27", "group": "nnss", "lat": -9.557929716331834, "lon": 79.51181141456308, "alt_km": 1154.219012587052, "timestamp": "2025-12-17T10:52:54.621938+00:00", "meta": {"OBJECT_NAME": "OSCAR 27", "OBJECT_ID": "1987-080A", "EPOCH": "2025-12-16T18:51:35.238528", "MEAN_MOTION": 13.44907501, "ECCENTRICITY": 0.01032286, "INCLINATION": 90.3742, "RA_OF_ASC_NODE": 79.4238, "ARG_OF_PERICENTER": 212.1097, "MEAN_ANOMALY": 147.3737, "EPHEMERIS_TYPE": 0, "CLASSIFICATION_TYPE": "U", "NORAD_CAT_ID": 18361, "ELEMENT_SET_NO": 999, "REV_AT_EPOCH": 87611, "BSTAR": 0.00014292275, "MEAN_MOTION_DOT": 9.4e-07, "MEAN_MOTION_DDOT": 0}, "tle": {"line1": "1 18361U 87080A   25350.78582452  .00000094  00000+0  14292-3 0  9991", "line2": "2 18361  90.3742  79.4238 0103228 212.1097 147.3737 13.44907501876116"}}, "geometry": {"type": "Point", "coordinates": [79.51181141456308, -9.557929716331834]}}, {"type": "Feature", "properties": {"norad_id": 18362, "name": "OSCAR 29", "group": "nnss", "lat": -4.871352083763725, "lon": 79.9398545909739, "alt_km": 1136.6593795475792, "timestamp": "2025-12-17T10:52:54.621948+00:00", "meta": {"OBJECT_NAME": "OSCAR 29", "OBJECT_ID": "1987-080B", "EPOCH": "2025-12-16T19:24:57.585312", "MEAN_MOTION": 13.44449136, "ECCENTRICITY": 0.01041378, "INCLINATION": 90.3753, "RA_OF_ASC_NODE": 79.8837, "ARG_OF_PERICENTER": 235.3453, "MEAN_ANOMALY": 241.768, "EPHEMERIS_TYPE": 0, "CLASSIFICATION_TYPE": "U", "NORAD_CAT_ID": 18362, "ELEMENT_SET_NO": 999, "REV_AT_EPOCH": 87564, "BSTAR": 0.0001315896, "MEAN_MOTION_DOT": 8.7e-07, "MEAN_MOTION_DDOT": 0}, "tle": {"line1": "1 18362U 87080B   25350.80899983  .00000087  00000+0  13159-3 0  9998", "line2": "2 18362  90.3753  79.8837 0104137 235.3453 241.7680 13.44449136875649"}}, "geometry": {"type": "Point", "coordinates": [79.9398545909739, -4.871352083763725]}}, {"type": "Feature", "properties": {"norad_id": 19070, "name": "OSCAR 23", "group": "nnss", "lat": -28.7783094380367, "lon": -163.63746445582586, "alt_km": 1053.2099272970963, "timestamp": "2025-12-17T10:52:54.621958+00:00", "meta": {"OBJECT_NAME": "OSCAR 23", "OBJECT_ID": "1988-033A", "EPOCH": "2025-12-16T20:14:23.839872", "MEAN_MOTION": 13.27787749, "ECCENTRICITY": 0.01898676, "INCLINATION": 90.3209, "RA_OF_ASC_NODE": 16.5199, "ARG_OF_PERICENTER": 168.5202, "MEAN_ANOMALY": 4.2173, "EPHEMERIS_TYPE": 0, "CLASSIFICATION_TYPE": "U", "NORAD_CAT_ID": 19070, "ELEMENT_SET_NO": 999, "REV_AT_EPOCH": 82307, "BSTAR": 0.00015315444, "MEAN_MOTION_DOT": 8.5e-07, "MEAN_MOTION_DDOT": 0}, "tle": {"line1": "1 19070U 88033A   25350.84333148  .00000085  00000+0  15315-3 0  9998", "line2": "2 19070  90.3209  16.5199 0189867 168.5202   4.2173 13.27787749823078"}}, "geometry": {"type": "Point", "coordinates": [-163.63746445582586, -28.7783094380367]}}, {"type": "Feature", "properties": {"norad_id": 19071, "name": "OSCAR 32", "group": "nnss", "lat": -39.22592494006373, "lon": 16.933550398455427, "alt_km": 1299.4333834294684, "timestamp": "2025-12-17T10:52:54.621969+00:00", "meta": {"OBJECT_NAME": "OSCAR 32", "OBJECT_ID": "1988-033B", "EPOCH": "2025-12-17T00:33:18.312768", "MEAN_MOTION": 13.27954583, "ECCENTRICITY": 0.01886801, "INCLINATION": 90.3214, "RA_OF_ASC_NODE": 16.6576, "ARG_OF_PERICENTER": 154.915, "MEAN_ANOMALY": 269.6423, "EPHEMERIS_TYPE": 0, "CLASSIFICATION_TYPE": "U", "NORAD_CAT_ID": 19071, "ELEMENT_SET_NO": 999, "REV_AT_EPOCH": 82322, "BSTAR": 0.00016252631, "MEAN_MOTION_DOT": 9e-07, "MEAN_MOTION_DDOT": 0}, "tle": {"line1": "1 19071U 88033B   25351.02312862  .00000090  00000+0  16253-3 0  9998", "line2": "2 19071  90.3214  16.6576 0188680 154.9150 269.6423 13.27954583823222"}}, "geometry": {"type": "Point", "coordinates": [16.933550398455427, -39.22592494006373]}}, {"type": "Feature", "properties": {"norad_id": 19223, "name": "NOVA 2", "group": "nnss", "lat": 72.8681428993686, "lon": 78.30821656472312, "alt_km": 1158.3580479708062, "timestamp": "2025-12-17T10:52:54.621979+00:00", "meta": {"OBJECT_NAME": "NOVA 2", "OBJECT_ID": "1988-052A", "EPOCH": "2025-12-17T00:29:59.597088", "MEAN_MOTION": 13.22936309, "ECCENTRICITY": 0.00302249, "INCLINATION": 89.9872, "RA_OF_ASC_NODE": 78.2672, "ARG_OF_PERICENTER": 5.1764, "MEAN_ANOMALY": 168.3928, "EPHEMERIS_TYPE": 0, "CLASSIFICATION_TYPE": "U", "NORAD_CAT_ID": 19223, "ELEMENT_SET_NO": 999, "REV_AT_EPOCH": 81004, "BSTAR": 0.00011588773, "MEAN_MOTION_DOT": 5.7e-07, "MEAN_MOTION_DDOT": 0}, "tle": {"line1": "1 19223U 88052A   25351.02082867  .00000057  00000+0  11589-3 0  9997", "line2": "2 19223  89.9872  78.2672 0030224   5.1764 168.3928 13.22936309810046"}}, "geometry": {"type": "Point", "coordinates": [78.30821656472312, 72.8681428993686]}}, {"type": "Feature", "properties": {"norad_id": 19419, "name": "OSCAR 25", "group": "nnss", "lat": 58.56743381839724, "lon": -159.68390879546283, "alt_km": 1118.5087306011483, "timestamp": "2025-12-17T10:52:54.621989+00:00", "meta": {"OBJECT_NAME": "OSCAR 25", "OBJECT_ID": "1988-074A", "EPOCH": "2025-12-16T23:51:06.804864", "MEAN_MOTION": 13.42624137, "ECCENTRICITY": 0.00946536, "INCLINATION": 90.0344, "RA_OF_ASC_NODE": 20.2582, "ARG_OF_PERICENTER": 233.5052, "MEAN_ANOMALY": 188.8394, "EPHEMERIS_TYPE": 0, "CLASSIFICATION_TYPE": "U", "NORAD_CAT_ID": 19419, "ELEMENT_SET_NO": 999, "REV_AT_EPOCH": 82697, "BSTAR": 0.0001773663, "MEAN_MOTION_DOT": 1.12e-06, "MEAN_MOTION_DDOT": 0}, "tle": {"line1": "1 19419U 88074A   25350.99382876  .00000112  00000+0  17737-3 0  9999", "line2": "2 19419  90.0344  20.2582 0094653 233.5052 188.8394 13.42624137826978"}}, "geometry": {"type": "Point", "coordinates": [-159.68390879546283, 58.56743381839724]}}, {"type": "Feature", "properties": {"norad_id": 19420, "name": "OSCAR 31", "group": "nnss", "lat": 6.0857017235209945, "lon": 20.606720435522185, "alt_km": 1154.6879095317545, "timestamp": "2025-12-17T10:52:54.621999+00:00", "meta": {"OBJECT_NAME": "OSCAR 31", "OBJECT_ID": "1988-074B", "EPOCH": "2025-12-17T00:25:35.508576", "MEAN_MOTION": 13.4258527, "ECCENTRICITY": 0.00929974, "INCLINATION": 90.036, "RA_OF_ASC_NODE": 20.609, "ARG_OF_PERICENTER": 227.5741, "MEAN_ANOMALY": 193.6051, "EPHEMERIS_TYPE": 0, "CLASSIFICATION_TYPE": "U", "NORAD_CAT_ID": 19420, "ELEMENT_SET_NO": 999, "REV_AT_EPOCH": 82708, "BSTAR": 0.00015621007, "MEAN_MOTION_DOT": 9.9e-07, "MEAN_MOTION_DDOT": 0}, "tle": {"line1": "1 19420U 88074B   25351.01777209  .00000099  00000+0  15621-3 0  9997", "line2": "2 19420  90.0360  20.6090 0092997 227.5741 193.6051 13.42585270827084"}}, "geometry": {"type": "Point", "coordinates": [20.606720435522185, 6.0857017235209945]}}]}